2018年12月02日00時04分09秒/Log開始{"ipv4":[{"name":"ワイヤレス ネットワーク接続","address":"192.168.43.169"}],"ipv6":[{"name":"ワイヤレス ネットワーク接続","address":"2001:240:2409:34c5:1546:47fd:a08d:cd3c"},{"name":"ワイヤレス ネットワーク接続","address":"2001:240:2409:34c5:70da:2af5:9afb:cf3"},{"name":"ワイヤレス ネットワーク接続","address":"fe80::1546:47fd:a08d:cd3c"}]}
2018年12月02日00時05分54秒/Log開始{"ipv4":[{"name":"ワイヤレス ネットワーク接続","address":"192.168.43.169"}],"ipv6":[{"name":"ワイヤレス ネットワーク接続","address":"2001:240:2409:34c5:1546:47fd:a08d:cd3c"},{"name":"ワイヤレス ネットワーク接続","address":"2001:240:2409:34c5:70da:2af5:9afb:cf3"},{"name":"ワイヤレス ネットワーク接続","address":"fe80::1546:47fd:a08d:cd3c"}]}
2018年12月02日00時13分45秒/Log開始{"ipv4":[{"name":"ワイヤレス ネットワーク接続","address":"192.168.43.169"}],"ipv6":[{"name":"ワイヤレス ネットワーク接続","address":"2001:240:2409:34c5:1546:47fd:a08d:cd3c"},{"name":"ワイヤレス ネットワーク接続","address":"2001:240:2409:34c5:70da:2af5:9afb:cf3"},{"name":"ワイヤレス ネットワーク接続","address":"fe80::1546:47fd:a08d:cd3c"}]}
2018年12月02日00時15分55秒/Log開始{"ipv4":[{"name":"ワイヤレス ネットワーク接続","address":"192.168.43.169"}],"ipv6":[{"name":"ワイヤレス ネットワーク接続","address":"2001:240:2409:34c5:1546:47fd:a08d:cd3c"},{"name":"ワイヤレス ネットワーク接続","address":"2001:240:2409:34c5:70da:2af5:9afb:cf3"},{"name":"ワイヤレス ネットワーク接続","address":"fe80::1546:47fd:a08d:cd3c"}]}
2018年12月02日00時24分59秒/Log開始{"ipv4":[{"name":"ワイヤレス ネットワーク接続","address":"192.168.43.169"}],"ipv6":[{"name":"ワイヤレス ネットワーク接続","address":"2001:240:2409:34c5:1546:47fd:a08d:cd3c"},{"name":"ワイヤレス ネットワーク接続","address":"2001:240:2409:34c5:70da:2af5:9afb:cf3"},{"name":"ワイヤレス ネットワーク接続","address":"fe80::1546:47fd:a08d:cd3c"}]}
2018年12月02日00時25分45秒/IP:::1/COMMENT:{"body":"aaaaa"}
2018年12月02日00時26分11秒/IP:::1/COMMENT:{"body":"aaaaa"}
2018年12月02日00時26分45秒/Log開始{"ipv4":[{"name":"ワイヤレス ネットワーク接続","address":"192.168.43.169"}],"ipv6":[{"name":"ワイヤレス ネットワーク接続","address":"2001:240:2409:34c5:1546:47fd:a08d:cd3c"},{"name":"ワイヤレス ネットワーク接続","address":"2001:240:2409:34c5:70da:2af5:9afb:cf3"},{"name":"ワイヤレス ネットワーク接続","address":"fe80::1546:47fd:a08d:cd3c"}]}
2018年12月02日00時29分11秒/Log開始{"ipv4":[],"ipv6":[]}
2018年12月02日00時32分22秒/Log開始{"ipv4":[],"ipv6":[]}
2018年12月02日00時35分24秒/Log開始{"ipv4":[],"ipv6":[]}
2018年12月02日00時36分08秒/Log開始{"ipv4":[],"ipv6":[]}
2018年12月02日00時36分57秒/Log開始{"ipv4":[{"name":"ワイヤレス ネットワーク接続","address":"192.168.43.169"}],"ipv6":[{"name":"ワイヤレス ネットワーク接続","address":"2001:240:2409:34c5:1546:47fd:a08d:cd3c"},{"name":"ワイヤレス ネットワーク接続","address":"2001:240:2409:34c5:b5dd:6578:433f:f412"},{"name":"ワイヤレス ネットワーク接続","address":"fe80::1546:47fd:a08d:cd3c"}]}
2018年12月02日00時37分17秒/IP:::1/COMMENT:{"body":";;;;;;;;;;;;;;;;;;"}
2018年12月02日00時37分19秒/IP:::1/COMMENT:{"body":"l"}
2018年12月02日00時37分19秒/IP:::1/COMMENT:{"body":"l"}
2018年12月02日00時37分20秒/IP:::1/COMMENT:{"body":"l"}
2018年12月02日00時37分20秒/IP:::1/COMMENT:{"body":"l"}
2018年12月02日00時37分20秒/IP:::1/COMMENT:{"body":"l"}
2018年12月02日00時40分12秒/Log開始{"ipv4":[{"name":"ワイヤレス ネットワーク接続","address":"192.168.43.169"}],"ipv6":[{"name":"ワイヤレス ネットワーク接続","address":"2001:240:2409:34c5:1546:47fd:a08d:cd3c"},{"name":"ワイヤレス ネットワーク接続","address":"2001:240:2409:34c5:b5dd:6578:433f:f412"},{"name":"ワイヤレス ネットワーク接続","address":"fe80::1546:47fd:a08d:cd3c"}]}
2018年12月02日00時46分14秒/Log開始{"ipv4":[{"name":"ワイヤレス ネットワーク接続","address":"192.168.43.169"}],"ipv6":[{"name":"ワイヤレス ネットワーク接続","address":"2001:240:2409:34c5:1546:47fd:a08d:cd3c"},{"name":"ワイヤレス ネットワーク接続","address":"2001:240:2409:34c5:b5dd:6578:433f:f412"},{"name":"ワイヤレス ネットワーク接続","address":"fe80::1546:47fd:a08d:cd3c"}]}
2018年12月02日07時53分10秒/Log開始{"ipv4":[],"ipv6":[]}
2018年12月02日07時55分41秒/IP:::1/COMMENT:{"body":"aaa"}
2018年12月02日07時59分01秒/Log開始{"ipv4":[{"name":"ワイヤレス ネットワーク接続","address":"192.168.43.169"}],"ipv6":[{"name":"ワイヤレス ネットワーク接続","address":"2001:240:2409:34c5:1546:47fd:a08d:cd3c"},{"name":"ワイヤレス ネットワーク接続","address":"2001:240:2409:34c5:b5dd:6578:433f:f412"},{"name":"ワイヤレス ネットワーク接続","address":"fe80::1546:47fd:a08d:cd3c"}]}
2018年12月02日08時00分47秒/Log開始{"ipv4":[{"name":"ワイヤレス ネットワーク接続","address":"192.168.43.169"}],"ipv6":[{"name":"ワイヤレス ネットワーク接続","address":"2001:240:2409:34c5:1546:47fd:a08d:cd3c"},{"name":"ワイヤレス ネットワーク接続","address":"2001:240:2409:34c5:b5dd:6578:433f:f412"},{"name":"ワイヤレス ネットワーク接続","address":"fe80::1546:47fd:a08d:cd3c"}]}
2018年12月02日08時02分14秒/Log開始{"ipv4":[{"name":"ワイヤレス ネットワーク接続","address":"192.168.43.169"}],"ipv6":[{"name":"ワイヤレス ネットワーク接続","address":"2001:240:2409:34c5:1546:47fd:a08d:cd3c"},{"name":"ワイヤレス ネットワーク接続","address":"2001:240:2409:34c5:b5dd:6578:433f:f412"},{"name":"ワイヤレス ネットワーク接続","address":"fe80::1546:47fd:a08d:cd3c"}]}
2018年12月02日08時03分00秒/IP:::ffff:192.168.43.1/COMMENT:{"body":"こめんと"}
2018年12月02日08時04分12秒/Log開始{"ipv4":[{"name":"ワイヤレス ネットワーク接続","address":"192.168.43.169"}],"ipv6":[{"name":"ワイヤレス ネットワーク接続","address":"2001:240:2409:34c5:1546:47fd:a08d:cd3c"},{"name":"ワイヤレス ネットワーク接続","address":"2001:240:2409:34c5:b5dd:6578:433f:f412"},{"name":"ワイヤレス ネットワーク接続","address":"fe80::1546:47fd:a08d:cd3c"}]}
2018年12月02日08時04分27秒/IP:::ffff:192.168.43.169/COMMENT:{"body":"00000000000000"}
2018年12月02日08時05分16秒/Log開始{"ipv4":[{"name":"ワイヤレス ネットワーク接続","address":"192.168.43.169"}],"ipv6":[{"name":"ワイヤレス ネットワーク接続","address":"2001:240:2409:34c5:1546:47fd:a08d:cd3c"},{"name":"ワイヤレス ネットワーク接続","address":"2001:240:2409:34c5:b5dd:6578:433f:f412"},{"name":"ワイヤレス ネットワーク接続","address":"fe80::1546:47fd:a08d:cd3c"}]}
2018年12月02日08時05分40秒/Log開始{"ipv4":[],"ipv6":[]}
